ORBCOMM FM05 [-]        
1 25117U 97084F   24007.41338981  .00001782  00000+0  58204-3 0  9993
2 25117  45.0182   9.0026 0000511  47.2920 312.7973 14.41962439364475
ORBCOMM FM06 [+]        
1 25118U 97084G   24007.03189354  .00001658  00000+0  54466-3 0  9998
2 25118  45.0171  11.0005 0000454 278.7735 110.6964 14.41934202365333
ORBCOMM FM07 [-]        
1 25119U 97084H   24007.35772521  .00001771  00000+0  57964-3 0  9990
2 25119  45.0169   9.9200 0001366  45.1512 314.9449 14.41875349365373
ORBCOMM FM03 [-]        
1 25158U 98007B   24007.30819906  .00001288  00000+0  52553-3 0  9995
2 25158 107.9738 135.5301 0045143  89.2783 271.3528 14.31673891348567
ORBCOMM FM04 [+]        
1 25159U 98007C   24007.31904405  .00001188  00000+0  48738-3 0  9995
2 25159 107.9724 138.4062 0040601  87.0640 273.5143 14.31931341348734
ORBCOMM FM17 [-]        
1 25413U 98046A   24006.69036893  .00000751  00000+0  32507-3 0  9990
2 25413  44.9938 222.1755 0002520  85.7703 274.3430 14.32669121327467
ORBCOMM FM18 [-]        
1 25414U 98046B   24007.47500785  .00001599  00000+0  60203-3 0  9999
2 25414  44.9932 148.1360 0005177 162.3392 197.7636 14.35279454328497
ORBCOMM FM19 [+]        
1 25415U 98046C   24007.51879495  .00001393  00000+0  53245-3 0  9992
2 25415  44.9941 149.1783 0003885 157.6416 316.5023 14.35132112328463
