<?xml version="1.0" encoding="UTF-8"?>
<ndm xmlns:xsi="http://www.w3.org/2001/XMLSchema-instance" xsi:noNamespaceSchemaLocation="https://sanaregistry.org/r/ndmxml_unqualified/ndmxml-2.0.0-master-2.0.xsd">
<omm id="CCSDS_OMM_VERS" version="2.0">
<header><CREATION_DATE/><ORIGINATOR/></header><body><segment><metadata><OBJECT_NAME>ORBCOMM FM05 [-]</OBJECT_NAME><OBJECT_ID>1997-084F</OBJECT_ID><CENTER_NAME>EARTH</CENTER_NAME><REF_FRAME>TEME</REF_FRAME><TIME_SYSTEM>UTC</TIME_SYSTEM><MEAN_ELEMENT_THEORY>SGP4</MEAN_ELEMENT_THEORY></metadata><data><meanElements><EPOCH>2024-01-07T09:55:16.879584</EPOCH><MEAN_MOTION>14.41962439</MEAN_MOTION><ECCENTRICITY>.0000511</ECCENTRICITY><INCLINATION>45.0182</INCLINATION><RA_OF_ASC_NODE>9.0026</RA_OF_ASC_NODE><ARG_OF_PERICENTER>47.2920</ARG_OF_PERICENTER><MEAN_ANOMALY>312.7973</MEAN_ANOMALY></meanElements><tleParameters><EPHEMERIS_TYPE>0</EPHEMERIS_TYPE><CLASSIFICATION_TYPE>U</CLASSIFICATION_TYPE><NORAD_CAT_ID>25117</NORAD_CAT_ID><ELEMENT_SET_NO>999</ELEMENT_SET_NO><REV_AT_EPOCH>36447</REV_AT_EPOCH><BSTAR>.58204E-3</BSTAR><MEAN_MOTION_DOT>.1782E-4</MEAN_MOTION_DOT><MEAN_MOTION_DDOT>0</MEAN_MOTION_DDOT></tleParameters></data></segment></body></omm>
<omm id="CCSDS_OMM_VERS" version="2.0">
<header><CREATION_DATE/><ORIGINATOR/></header><body><segment><metadata><OBJECT_NAME>ORBCOMM FM06 [+]</OBJECT_NAME><OBJECT_ID>1997-084G</OBJECT_ID><CENTER_NAME>EARTH</CENTER_NAME><REF_FRAME>TEME</REF_FRAME><TIME_SYSTEM>UTC</TIME_SYSTEM><MEAN_ELEMENT_THEORY>SGP4</MEAN_ELEMENT_THEORY></metadata><data><meanElements><EPOCH>2024-01-07T00:45:55.601856</EPOCH><MEAN_MOTION>14.41934202</MEAN_MOTION><ECCENTRICITY>.0000454</ECCENTRICITY><INCLINATION>45.0171</INCLINATION><RA_OF_ASC_NODE>11.0005</RA_OF_ASC_NODE><ARG_OF_PERICENTER>278.7735</ARG_OF_PERICENTER><MEAN_ANOMALY>110.6964</MEAN_ANOMALY></meanElements><tleParameters><EPHEMERIS_TYPE>0</EPHEMERIS_TYPE><CLASSIFICATION_TYPE>U</CLASSIFICATION_TYPE><NORAD_CAT_ID>25118</NORAD_CAT_ID><ELEMENT_SET_NO>999</ELEMENT_SET_NO><REV_AT_EPOCH>36533</REV_AT_EPOCH><BSTAR>.54466E-3</BSTAR><MEAN_MOTION_DOT>.1658E-4</MEAN_MOTION_DOT><MEAN_MOTION_DDOT>0</MEAN_MOTION_DDOT></tleParameters></data></segment></body></omm>
<omm id="CCSDS_OMM_VERS" version="2.0">
<header><CREATION_DATE/><ORIGINATOR/></header><body><segment><metadata><OBJECT_NAME>ORBCOMM FM07 [-]</OBJECT_NAME><OBJECT_ID>1997-084H</OBJECT_ID><CENTER_NAME>EARTH</CENTER_NAME><REF_FRAME>TEME</REF_FRAME><TIME_SYSTEM>UTC</TIME_SYSTEM><MEAN_ELEMENT_THEORY>SGP4</MEAN_ELEMENT_THEORY></metadata><data><meanElements><EPOCH>2024-01-07T08:35:07.458144</EPOCH><MEAN_MOTION>14.41875349</MEAN_MOTION><ECCENTRICITY>.0001366</ECCENTRICITY><INCLINATION>45.0169</INCLINATION><RA_OF_ASC_NODE>9.9200</RA_OF_ASC_NODE><ARG_OF_PERICENTER>45.1512</ARG_OF_PERICENTER><MEAN_ANOMALY>314.9449</MEAN_ANOMALY></meanElements><tleParameters><EPHEMERIS_TYPE>0</EPHEMERIS_TYPE><CLASSIFICATION_TYPE>U</CLASSIFICATION_TYPE><NORAD_CAT_ID>25119</NORAD_CAT_ID><ELEMENT_SET_NO>999</ELEMENT_SET_NO><REV_AT_EPOCH>36537</REV_AT_EPOCH><BSTAR>.57964E-3</BSTAR><MEAN_MOTION_DOT>.1771E-4</MEAN_MOTION_DOT><MEAN_MOTION_DDOT>0</MEAN_MOTION_DDOT></tleParameters></data></segment></body></omm>
<omm id="CCSDS_OMM_VERS" version="2.0">
<header><CREATION_DATE/><ORIGINATOR/></header><body><segment><metadata><OBJECT_NAME>ORBCOMM FM03 [-]</OBJECT_NAME><OBJECT_ID>1998-007B</OBJECT_ID><CENTER_NAME>EARTH</CENTER_NAME><REF_FRAME>TEME</REF_FRAME><TIME_SYSTEM>UTC</TIME_SYSTEM><MEAN_ELEMENT_THEORY>SGP4</MEAN_ELEMENT_THEORY></metadata><data><meanElements><EPOCH>2024-01-07T07:23:48.398784</EPOCH><MEAN_MOTION>14.31673891</MEAN_MOTION><ECCENTRICITY>.0045143</ECCENTRICITY><INCLINATION>107.9738</INCLINATION><RA_OF_ASC_NODE>135.5301</RA_OF_ASC_NODE><ARG_OF_PERICENTER>89.2783</ARG_OF_PERICENTER><MEAN_ANOMALY>271.3528</MEAN_ANOMALY></meanElements><tleParameters><EPHEMERIS_TYPE>0</EPHEMERIS_TYPE><CLASSIFICATION_TYPE>U</CLASSIFICATION_TYPE><NORAD_CAT_ID>25158</NORAD_CAT_ID><ELEMENT_SET_NO>999</ELEMENT_SET_NO><REV_AT_EPOCH>34856</REV_AT_EPOCH><BSTAR>.52553E-3</BSTAR><MEAN_MOTION_DOT>.1288E-4</MEAN_MOTION_DOT><MEAN_MOTION_DDOT>0</MEAN_MOTION_DDOT></tleParameters></data></segment></body></omm>
<omm id="CCSDS_OMM_VERS" version="2.0">
<header><CREATION_DATE/><ORIGINATOR/></header><body><segment><metadata><OBJECT_NAME>ORBCOMM FM04 [+]</OBJECT_NAME><OBJECT_ID>1998-007C</OBJECT_ID><CENTER_NAME>EARTH</CENTER_NAME><REF_FRAME>TEME</REF_FRAME><TIME_SYSTEM>UTC</TIME_SYSTEM><MEAN_ELEMENT_THEORY>SGP4</MEAN_ELEMENT_THEORY></metadata><data><meanElements><EPOCH>2024-01-07T07:39:25.405920</EPOCH><MEAN_MOTION>14.31931341</MEAN_MOTION><ECCENTRICITY>.0040601</ECCENTRICITY><INCLINATION>107.9724</INCLINATION><RA_OF_ASC_NODE>138.4062</RA_OF_ASC_NODE><ARG_OF_PERICENTER>87.0640</ARG_OF_PERICENTER><MEAN_ANOMALY>273.5143</MEAN_ANOMALY></meanElements><tleParameters><EPHEMERIS_TYPE>0</EPHEMERIS_TYPE><CLASSIFICATION_TYPE>U</CLASSIFICATION_TYPE><NORAD_CAT_ID>25159</NORAD_CAT_ID><ELEMENT_SET_NO>999</ELEMENT_SET_NO><REV_AT_EPOCH>34873</REV_AT_EPOCH><BSTAR>.48738E-3</BSTAR><MEAN_MOTION_DOT>.1188E-4</MEAN_MOTION_DOT><MEAN_MOTION_DDOT>0</MEAN_MOTION_DDOT></tleParameters></data></segment></body></omm>
<omm id="CCSDS_OMM_VERS" version="2.0">
<header><CREATION_DATE/><ORIGINATOR/></header><body><segment><metadata><OBJECT_NAME>ORBCOMM FM17 [-]</OBJECT_NAME><OBJECT_ID>1998-046A</OBJECT_ID><CENTER_NAME>EARTH</CENTER_NAME><REF_FRAME>TEME</REF_FRAME><TIME_SYSTEM>UTC</TIME_SYSTEM><MEAN_ELEMENT_THEORY>SGP4</MEAN_ELEMENT_THEORY></metadata><data><meanElements><EPOCH>2024-01-06T16:34:07.875552</EPOCH><MEAN_MOTION>14.32669121</MEAN_MOTION><ECCENTRICITY>.000252</ECCENTRICITY><INCLINATION>44.9938</INCLINATION><RA_OF_ASC_NODE>222.1755</RA_OF_ASC_NODE><ARG_OF_PERICENTER>85.7703</ARG_OF_PERICENTER><MEAN_ANOMALY>274.3430</MEAN_ANOMALY></meanElements><tleParameters><EPHEMERIS_TYPE>0</EPHEMERIS_TYPE><CLASSIFICATION_TYPE>U</CLASSIFICATION_TYPE><NORAD_CAT_ID>25413</NORAD_CAT_ID><ELEMENT_SET_NO>999</ELEMENT_SET_NO><REV_AT_EPOCH>32746</REV_AT_EPOCH><BSTAR>.32507E-3</BSTAR><MEAN_MOTION_DOT>.751E-5</MEAN_MOTION_DOT><MEAN_MOTION_DDOT>0</MEAN_MOTION_DDOT></tleParameters></data></segment></body></omm>
<omm id="CCSDS_OMM_VERS" version="2.0">
<header><CREATION_DATE/><ORIGINATOR/></header><body><segment><metadata><OBJECT_NAME>ORBCOMM FM18 [-]</OBJECT_NAME><OBJECT_ID>1998-046B</OBJECT_ID><CENTER_NAME>EARTH</CENTER_NAME><REF_FRAME>TEME</REF_FRAME><TIME_SYSTEM>UTC</TIME_SYSTEM><MEAN_ELEMENT_THEORY>SGP4</MEAN_ELEMENT_THEORY></metadata><data><meanElements><EPOCH>2024-01-07T11:24:00.678240</EPOCH><MEAN_MOTION>14.35279454</MEAN_MOTION><ECCENTRICITY>.0005177</ECCENTRICITY><INCLINATION>44.9932</INCLINATION><RA_OF_ASC_NODE>148.1360</RA_OF_ASC_NODE><ARG_OF_PERICENTER>162.3392</ARG_OF_PERICENTER><MEAN_ANOMALY>197.7636</MEAN_ANOMALY></meanElements><tleParameters><EPHEMERIS_TYPE>0</EPHEMERIS_TYPE><CLASSIFICATION_TYPE>U</CLASSIFICATION_TYPE><NORAD_CAT_ID>25414</NORAD_CAT_ID><ELEMENT_SET_NO>999</ELEMENT_SET_NO><REV_AT_EPOCH>32849</REV_AT_EPOCH><BSTAR>.60203E-3</BSTAR><MEAN_MOTION_DOT>.1599E-4</MEAN_MOTION_DOT><MEAN_MOTION_DDOT>0</MEAN_MOTION_DDOT></tleParameters></data></segment></body></omm>
<omm id="CCSDS_OMM_VERS" version="2.0">
<header><CREATION_DATE/><ORIGINATOR/></header><body><segment><metadata><OBJECT_NAME>ORBCOMM FM19 [+]</OBJECT_NAME><OBJECT_ID>1998-046C</OBJECT_ID><CENTER_NAME>EARTH</CENTER_NAME><REF_FRAME>TEME</REF_FRAME><TIME_SYSTEM>UTC</TIME_SYSTEM><MEAN_ELEMENT_THEORY>SGP4</MEAN_ELEMENT_THEORY></metadata><data><meanElements><EPOCH>2024-01-07T12:27:03.883680</EPOCH><MEAN_MOTION>14.35132112</MEAN_MOTION><ECCENTRICITY>.0003885</ECCENTRICITY><INCLINATION>44.9941</INCLINATION><RA_OF_ASC_NODE>149.1783</RA_OF_ASC_NODE><ARG_OF_PERICENTER>157.6416</ARG_OF_PERICENTER><MEAN_ANOMALY>316.5023</MEAN_ANOMALY></meanElements><tleParameters><EPHEMERIS_TYPE>0</EPHEMERIS_TYPE><CLASSIFICATION_TYPE>U</CLASSIFICATION_TYPE><NORAD_CAT_ID>25415</NORAD_CAT_ID><ELEMENT_SET_NO>999</ELEMENT_SET_NO><REV_AT_EPOCH>32846</REV_AT_EPOCH><BSTAR>.53245E-3</BSTAR><MEAN_MOTION_DOT>.1393E-4</MEAN_MOTION_DOT><MEAN_MOTION_DDOT>0</MEAN_MOTION_DDOT></tleParameters></data></segment></body></omm>

</ndm>
